{
  "type": "FeatureCollection",
  "features": [
    {
      "type": "Feature",
      "properties": {
        "norad_id": 29904,
        "name": "FENGYUN 1C DEB",
        "group": "fengyun-1c-debris",
        "lat": 56.79116863562422,
        "lon": 6.894821494104568,
        "alt_km": 732.9048536538066,
        "timestamp": "2025-12-09T07:41:33.480362+00:00",
        "meta_object_name": "FENGYUN 1C DEB",
        "meta_object_id": "1999-025HA",
        "meta_epoch": "2025-12-08T19:47:37.703616",
        "meta_mean_motion": 14.44458089,
        "meta_eccentricity": 0.02079912,
        "meta_inclination": 99.0418,
        "meta_ra_of_asc_node": 20.4463,
        "meta_arg_of_pericenter": 330.3406,
        "meta_mean_anomaly": 28.6117,
        "meta_ephemeris_type": 0,
        "meta_classification_type": "U",
        "meta_norad_cat_id": 29904,
        "meta_element_set_no": 999,
        "meta_rev_at_epoch": 99007,
        "meta_bstar": 0.00078622779,
        "meta_mean_motion_dot": 3.476e-05,
        "meta_mean_motion_ddot": 0,
        "tle_line1": "1 29904U 99025HA  25342.82474194  .00003476  00000+0  78623-3 0  9992",
        "tle_line2": "2 29904  99.0418  20.4463 0207991 330.3406  28.6117 14.44458089990070"
      },
      "geometry": {
        "type": "Point",
        "coordinates": [
          6.894821494104568,
          56.79116863562422
        ]
      }
    },
    {
      "type": "Feature",
      "properties": {
        "norad_id": 29906,
        "name": "FENGYUN 1C DEB",
        "group": "fengyun-1c-debris",
        "lat": -80.95463907295162,
        "lon": -167.70464550666512,
        "alt_km": 742.7537617798116,
        "timestamp": "2025-12-09T07:41:33.480372+00:00",
        "meta_object_name": "FENGYUN 1C DEB",
        "meta_object_id": "1999-025HC",
        "meta_epoch": "2025-12-08T20:31:28.020288",
        "meta_mean_motion": 14.4952181,
        "meta_eccentricity": 0.00373138,
        "meta_inclination": 98.7059,
        "meta_ra_of_asc_node": 86.0758,
        "meta_arg_of_pericenter": 160.6182,
        "meta_mean_anomaly": 199.6439,
        "meta_ephemeris_type": 0,
        "meta_classification_type": "U",
        "meta_norad_cat_id": 29906,
        "meta_element_set_no": 999,
        "meta_rev_at_epoch": 98101,
        "meta_bstar": 0.003172394,
        "meta_mean_motion_dot": 0.00012243,
        "meta_mean_motion_ddot": 0,
        "tle_line1": "1 29906U 99025HC  25342.85518542  .00012243  00000+0  31724-2 0  9995",
        "tle_line2": "2 29906  98.7059  86.0758 0037313 160.6182 199.6439 14.49521810981016"
      },
      "geometry": {
        "type": "Point",
        "coordinates": [
          -167.70464550666512,
          -80.95463907295162
        ]
      }
    },
    {
      "type": "Feature",
      "properties": {
        "norad_id": 29907,
        "name": "FENGYUN 1C DEB",
        "group": "fengyun-1c-debris",
        "lat": 20.93976999254471,
        "lon": -126.53723331093134,
        "alt_km": 864.1423106367702,
        "timestamp": "2025-12-09T07:41:33.480382+00:00",
        "meta_object_name": "FENGYUN 1C DEB",
        "meta_object_id": "1999-025HD",
        "meta_epoch": "2025-12-08T23:15:19.766592",
        "meta_mean_motion": 14.11599528,
        "meta_eccentricity": 0.00836332,
        "meta_inclination": 99.1115,
        "meta_ra_of_asc_node": 49.5852,
        "meta_arg_of_pericenter": 260.05,
        "meta_mean_anomaly": 274.0733,
        "meta_ephemeris_type": 0,
        "meta_classification_type": "U",
        "meta_norad_cat_id": 29907,
        "meta_element_set_no": 999,
        "meta_rev_at_epoch": 96545,
        "meta_bstar": 0.0018191969,
        "meta_mean_motion_dot": 3.37e-05,
        "meta_mean_motion_ddot": 0,
        "tle_line1": "1 29907U 99025HD  25342.96897878  .00003370  00000+0  18192-2 0  9995",
        "tle_line2": "2 29907  99.1115  49.5852 0083633 260.0500 274.0733 14.11599528965454"
      },
      "geometry": {
        "type": "Point",
        "coordinates": [
          -126.53723331093134,
          20.93976999254471
        ]
      }
    },
    {
      "type": "Feature",
      "properties": {
        "norad_id": 29909,
        "name": "FENGYUN 1C DEB",
        "group": "fengyun-1c-debris",
        "lat": -79.91496527102176,
        "lon": 145.70587517645666,
        "alt_km": 726.2976971812968,
        "timestamp": "2025-12-09T07:41:33.480392+00:00",
        "meta_object_name": "FENGYUN 1C DEB",
        "meta_object_id": "1999-025HF",
        "meta_epoch": "2025-12-08T05:57:06.520032",
        "meta_mean_motion": 14.55001383,
        "meta_eccentricity": 0.0038413,
        "meta_inclination": 98.6353,
        "meta_ra_of_asc_node": 85.902,
        "meta_arg_of_pericenter": 29.5662,
        "meta_mean_anomaly": 31.3673,
        "meta_ephemeris_type": 0,
        "meta_classification_type": "U",
        "meta_norad_cat_id": 29909,
        "meta_element_set_no": 999,
        "meta_rev_at_epoch": 98340,
        "meta_bstar": 0.0026224818,
        "meta_mean_motion_dot": 0.00011373,
        "meta_mean_motion_ddot": 0,
        "tle_line1": "1 29909U 99025HF  25342.24799213  .00011373  00000+0  26225-2 0  9990",
        "tle_line2": "2 29909  98.6353  85.9020 0038413  29.5662  31.3673 14.55001383983405"
      },
      "geometry": {
        "type": "Point",
        "coordinates": [
          145.70587517645666,
          -79.91496527102176
        ]
      }
    },
    {
      "type": "Feature",
      "properties": {
        "norad_id": 29911,
        "name": "FENGYUN 1C DEB",
        "group": "fengyun-1c-debris",
        "lat": 33.012004194224914,
        "lon": -147.7890869654196,
        "alt_km": 808.0665000716899,
        "timestamp": "2025-12-09T07:41:33.480402+00:00",
        "meta_object_name": "FENGYUN 1C DEB",
        "meta_object_id": "1999-025HH",
        "meta_epoch": "2025-12-08T16:22:54.161184",
        "meta_mean_motion": 14.18837345,
        "meta_eccentricity": 0.00273549,
        "meta_inclination": 98.7155,
        "meta_ra_of_asc_node": 25.8642,
        "meta_arg_of_pericenter": 162.2248,
        "meta_mean_anomaly": 327.5831,
        "meta_ephemeris_type": 0,
        "meta_classification_type": "U",
        "meta_norad_cat_id": 29911,
        "meta_element_set_no": 999,
        "meta_rev_at_epoch": 97373,
        "meta_bstar": 0.0012331137,
        "meta_mean_motion_dot": 2.532e-05,
        "meta_mean_motion_ddot": 0,
        "tle_line1": "1 29911U 99025HH  25342.68257131  .00002532  00000+0  12331-2 0  9999",
        "tle_line2": "2 29911  98.7155  25.8642 0027354 162.2248 327.5831 14.18837345973734"
      },
      "geometry": {
        "type": "Point",
        "coordinates": [
          -147.7890869654196,
          33.012004194224914
        ]
      }
    },
    {
      "type": "Feature",
      "properties": {
        "norad_id": 29912,
        "name": "FENGYUN 1C DEB",
        "group": "fengyun-1c-debris",
        "lat": 12.162632084729786,
        "lon": -97.41943010086088,
        "alt_km": 735.353298246474,
        "timestamp": "2025-12-09T07:41:33.480412+00:00",
        "meta_object_name": "FENGYUN 1C DEB",
        "meta_object_id": "1999-025HJ",
        "meta_epoch": "2025-12-08T06:12:15.569856",
        "meta_mean_motion": 14.42877357,
        "meta_eccentricity": 0.00427149,
        "meta_inclination": 98.7386,
        "meta_ra_of_asc_node": 79.5925,
        "meta_arg_of_pericenter": 231.8377,
        "meta_mean_anomaly": 182.8253,
        "meta_ephemeris_type": 0,
        "meta_classification_type": "U",
        "meta_norad_cat_id": 29912,
        "meta_element_set_no": 999,
        "meta_rev_at_epoch": 97974,
        "meta_bstar": 0.0029418518,
        "meta_mean_motion_dot": 9.901e-05,
        "meta_mean_motion_ddot": 0,
        "tle_line1": "1 29912U 99025HJ  25342.25851354  .00009901  00000+0  29419-2 0  9992",
        "tle_line2": "2 29912  98.7386  79.5925 0042714 231.8377 182.8253 14.42877357979745"
      },
      "geometry": {
        "type": "Point",
        "coordinates": [
          -97.41943010086088,
          12.162632084729786
        ]
      }
    },
    {
      "type": "Feature",
      "properties": {
        "norad_id": 29913,
        "name": "FENGYUN 1C DEB",
        "group": "fengyun-1c-debris",
        "lat": -4.423243279541205,
        "lon": -17.048171373342026,
        "alt_km": 859.4357808329814,
        "timestamp": "2025-12-09T07:41:33.480423+00:00",
        "meta_object_name": "FENGYUN 1C DEB",
        "meta_object_id": "1999-025HK",
        "meta_epoch": "2025-12-08T23:26:33.552672",
        "meta_mean_motion": 14.07375287,
        "meta_eccentricity": 0.00619334,
        "meta_inclination": 98.7875,
        "meta_ra_of_asc_node": 341.932,
        "meta_arg_of_pericenter": 282.2816,
        "meta_mean_anomaly": 132.0222,
        "meta_ephemeris_type": 0,
        "meta_classification_type": "U",
        "meta_norad_cat_id": 29913,
        "meta_element_set_no": 999,
        "meta_rev_at_epoch": 96912,
        "meta_bstar": 0.00040739238,
        "meta_mean_motion_dot": 6.53e-06,
        "meta_mean_motion_ddot": 0,
        "tle_line1": "1 29913U 99025HK  25342.97677723  .00000653  00000+0  40739-3 0  9992",
        "tle_line2": "2 29913  98.7875 341.9320 0061933 282.2816 132.0222 14.07375287969126"
      },
      "geometry": {
        "type": "Point",
        "coordinates": [
          -17.048171373342026,
          -4.423243279541205
        ]
      }
    }
  ]
}